[{"OBJECT_NAME":"STARLINK-32003","OBJECT_ID":"2024-117G","EPOCH":"2025-11-19T23:54:15.178464","MEAN_MOTION":15.30199513,"ECCENTRICITY":0.00011748,"INCLINATION":53.1576,"RA_OF_ASC_NODE":186.5157,"ARG_OF_PERICENTER":92.8721,"MEAN_ANOMALY":267.2414,"EPHEMERIS_TYPE":0,"CLASSIFICATION_TYPE":"U","NORAD_CAT_ID":60097,"ELEMENT_SET_NO":999,"REV_AT_EPOCH":8009,"BSTAR":9.1199293e-5,"MEAN_MOTION_DOT":2.343e-5,"MEAN_MOTION_DDOT":0},{"OBJECT_NAME":"STARLINK-32026","OBJECT_ID":"2024-117H","EPOCH":"2025-11-20T00:07:56.915904","MEAN_MOTION":15.3020851,"ECCENTRICITY":0.00018594,"INCLINATION":53.1589,"RA_OF_ASC_NODE":186.5751,"ARG_OF_PERICENTER":82.8299,"MEAN_ANOMALY":277.2913,"EPHEMERIS_TYPE":0,"CLASSIFICATION_TYPE":"U","NORAD_CAT_ID":60098,"ELEMENT_SET_NO":999,"REV_AT_EPOCH":8009,"BSTAR":0.00041939859,"MEAN_MOTION_DOT":0.00012086,"MEAN_MOTION_DDOT":0},{"OBJECT_NAME":"STARLINK-31732","OBJECT_ID":"2024-117J","EPOCH":"2025-11-20T02:28:55.307424","MEAN_MOTION":15.3020824,"ECCENTRICITY":0.00010008,"INCLINATION":53.1594,"RA_OF_ASC_NODE":185.7613,"ARG_OF_PERICENTER":73.8456,"MEAN_ANOMALY":286.2654,"EPHEMERIS_TYPE":0,"CLASSIFICATION_TYPE":"U","NORAD_CAT_ID":60099,"ELEMENT_SET_NO":999,"REV_AT_EPOCH":8011,"BSTAR":-1.6820524e-5,"MEAN_MOTION_DOT":-8.57e-6,"MEAN_MOTION_DDOT":0},{"OBJECT_NAME":"STARLINK-31996","OBJECT_ID":"2024-117K","EPOCH":"2025-11-19T22:06:31.253184","MEAN_MOTION":15.30198289,"ECCENTRICITY":0.00013175,"INCLINATION":53.1609,"RA_OF_ASC_NODE":186.758,"ARG_OF_PERICENTER":89.0503,"MEAN_ANOMALY":271.0648,"EPHEMERIS_TYPE":0,"CLASSIFICATION_TYPE":"U","NORAD_CAT_ID":60100,"ELEMENT_SET_NO":999,"REV_AT_EPOCH":8008,"BSTAR":3.88187e-6,"MEAN_MOTION_DOT":-2.44e-6,"MEAN_MOTION_DDOT":0},{"OBJECT_NAME":"STARLINK-31999","OBJECT_ID":"2024-117L","EPOCH":"2025-11-19T21:37:48.927936","MEAN_MOTION":15.30194561,"ECCENTRICITY":0.00014183,"INCLINATION":53.1607,"RA_OF_ASC_NODE":187.3489,"ARG_OF_PERICENTER":84.6464,"MEAN_ANOMALY":275.4698,"EPHEMERIS_TYPE":0,"CLASSIFICATION_TYPE":"U","NORAD_CAT_ID":60101,"ELEMENT_SET_NO":999,"REV_AT_EPOCH":8007,"BSTAR":1.0700536e-5,"MEAN_MOTION_DOT":-4.2e-7,"MEAN_MOTION_DDOT":0},{"OBJECT_NAME":"STARLINK-31954","OBJECT_ID":"2024-117M","EPOCH":"2025-11-19T21:28:41.812032","MEAN_MOTION":15.30194969,"ECCENTRICITY":0.00011243,"INCLINATION":53.1592,"RA_OF_ASC_NODE":187.3081,"ARG_OF_PERICENTER":49.4155,"MEAN_ANOMALY":310.6943,"EPHEMERIS_TYPE":0,"CLASSIFICATION_TYPE":"U","NORAD_CAT_ID":60102,"ELEMENT_SET_NO":999,"REV_AT_EPOCH":8007,"BSTAR":9.403931e-6,"MEAN_MOTION_DOT":-8.1e-7,"MEAN_MOTION_DDOT":0},{"OBJECT_NAME":"STARLINK-32013","OBJECT_ID":"2024-117N","EPOCH":"2025-11-20T00:32:14.608320","MEAN_MOTION":15.30198756,"ECCENTRICITY":0.00012766,"INCLINATION":53.1586,"RA_OF_ASC_NODE":186.6804,"ARG_OF_PERICENTER":87.0223,"MEAN_ANOMALY":273.0924,"EPHEMERIS_TYPE":0,"CLASSIFICATION_TYPE":"U","NORAD_CAT_ID":60103,"ELEMENT_SET_NO":999,"REV_AT_EPOCH":8009,"BSTAR":0.00012336724,"MEAN_MOTION_DOT":3.296e-5,"MEAN_MOTION_DDOT":0},{"OBJECT_NAME":"STARLINK-32009","OBJECT_ID":"2024-117P","EPOCH":"2025-11-19T21:42:22.149792","MEAN_MOTION":15.30189276,"ECCENTRICITY":0.00012986,"INCLINATION":53.1599,"RA_OF_ASC_NODE":187.3403,"ARG_OF_PERICENTER":89.6753,"MEAN_ANOMALY":270.4396,"EPHEMERIS_TYPE":0,"CLASSIFICATION_TYPE":"U","NORAD_CAT_ID":60104,"ELEMENT_SET_NO":999,"REV_AT_EPOCH":8007,"BSTAR":0.00010383898,"MEAN_MOTION_DOT":2.716e-5,"MEAN_MOTION_DDOT":0},{"OBJECT_NAME":"STARLINK-32018","OBJECT_ID":"2024-117Q","EPOCH":"2025-11-19T21:10:28.082208","MEAN_MOTION":15.30224661,"ECCENTRICITY":0.00018446,"INCLINATION":53.1585,"RA_OF_ASC_NODE":187.2261,"ARG_OF_PERICENTER":97.4117,"MEAN_ANOMALY":262.7093,"EPHEMERIS_TYPE":0,"CLASSIFICATION_TYPE":"U","NORAD_CAT_ID":60105,"ELEMENT_SET_NO":999,"REV_AT_EPOCH":8007,"BSTAR":0.00043041905,"MEAN_MOTION_DOT":0.0001242,"MEAN_MOTION_DDOT":0},{"OBJECT_NAME":"STARLINK-32045","OBJECT_ID":"2024-117R","EPOCH":"2025-11-19T08:42:35.716032","MEAN_MOTION":15.30189414,"ECCENTRICITY":0.00014054,"INCLINATION":53.1604,"RA_OF_ASC_NODE":189.6739,"ARG_OF_PERICENTER":84.4524,"MEAN_ANOMALY":275.6637,"EPHEMERIS_TYPE":0,"CLASSIFICATION_TYPE":"U","NORAD_CAT_ID":60106,"ELEMENT_SET_NO":999,"REV_AT_EPOCH":7999,"BSTAR":2.8861946e-5,"MEAN_MOTION_DOT":4.95e-6,"MEAN_MOTION_DDOT":0},{"OBJECT_NAME":"STARLINK-32035","OBJECT_ID":"2024-117S","EPOCH":"2025-11-20T00:03:22.114656","MEAN_MOTION":15.30189021,"ECCENTRICITY":0.00010892,"INCLINATION":53.1595,"RA_OF_ASC_NODE":186.5498,"ARG_OF_PERICENTER":102.4349,"MEAN_ANOMALY":257.6774,"EPHEMERIS_TYPE":0,"CLASSIFICATION_TYPE":"U","NORAD_CAT_ID":60107,"ELEMENT_SET_NO":999,"REV_AT_EPOCH":8009,"BSTAR":3.3715989e-5,"MEAN_MOTION_DOT":6.39e-6,"MEAN_MOTION_DDOT":0},{"OBJECT_NAME":"STARLINK-32042","OBJECT_ID":"2024-117T","EPOCH":"2025-11-19T22:15:38.248992","MEAN_MOTION":15.30181967,"ECCENTRICITY":0.0001158,"INCLINATION":53.16,"RA_OF_ASC_NODE":186.7967,"ARG_OF_PERICENTER":107.3184,"MEAN_ANOMALY":252.7943,"EPHEMERIS_TYPE":0,"CLASSIFICATION_TYPE":"U","NORAD_CAT_ID":60108,"ELEMENT_SET_NO":999,"REV_AT_EPOCH":8008,"BSTAR":0.00016977804,"MEAN_MOTION_DOT":4.67e-5,"MEAN_MOTION_DDOT":0},{"OBJECT_NAME":"STARLINK-32040","OBJECT_ID":"2024-117U","EPOCH":"2025-11-18T22:19:00.419808","MEAN_MOTION":15.30197043,"ECCENTRICITY":0.0001433,"INCLINATION":53.1617,"RA_OF_ASC_NODE":191.2428,"ARG_OF_PERICENTER":98.2104,"MEAN_ANOMALY":261.906,"EPHEMERIS_TYPE":0,"CLASSIFICATION_TYPE":"U","NORAD_CAT_ID":60109,"ELEMENT_SET_NO":999,"REV_AT_EPOCH":7993,"BSTAR":2.3195008e-5,"MEAN_MOTION_DOT":3.28e-6,"MEAN_MOTION_DDOT":0},{"OBJECT_NAME":"STARLINK-32001","OBJECT_ID":"2024-117V","EPOCH":"2025-11-19T22:01:57.873216","MEAN_MOTION":15.30196208,"ECCENTRICITY":0.00014508,"INCLINATION":53.1575,"RA_OF_ASC_NODE":186.7378,"ARG_OF_PERICENTER":92.7623,"MEAN_ANOMALY":267.3544,"EPHEMERIS_TYPE":0,"CLASSIFICATION_TYPE":"U","NORAD_CAT_ID":60110,"ELEMENT_SET_NO":999,"REV_AT_EPOCH":8008,"BSTAR":9.8071474e-5,"MEAN_MOTION_DOT":2.546e-5,"MEAN_MOTION_DDOT":0},{"OBJECT_NAME":"STARLINK-32015","OBJECT_ID":"2024-117W","EPOCH":"2025-11-19T21:52:50.865312","MEAN_MOTION":15.3019004,"ECCENTRICITY":0.00013759,"INCLINATION":53.1579,"RA_OF_ASC_NODE":186.6958,"ARG_OF_PERICENTER":85.2033,"MEAN_ANOMALY":274.9125,"EPHEMERIS_TYPE":0,"CLASSIFICATION_TYPE":"U","NORAD_CAT_ID":60111,"ELEMENT_SET_NO":999,"REV_AT_EPOCH":8008,"BSTAR":3.7027406e-5,"MEAN_MOTION_DOT":7.37e-6,"MEAN_MOTION_DDOT":0},{"OBJECT_NAME":"STARLINK-32024","OBJECT_ID":"2024-117X","EPOCH":"2025-11-19T22:11:06.066528","MEAN_MOTION":15.30170413,"ECCENTRICITY":0.00016345,"INCLINATION":53.1601,"RA_OF_ASC_NODE":186.7769,"ARG_OF_PERICENTER":93.3111,"MEAN_ANOMALY":266.8077,"EPHEMERIS_TYPE":0,"CLASSIFICATION_TYPE":"U","NORAD_CAT_ID":60112,"ELEMENT_SET_NO":999,"REV_AT_EPOCH":8008,"BSTAR":0.00025388947,"MEAN_MOTION_DOT":7.161e-5,"MEAN_MOTION_DDOT":0}]
