STARLINK-32003          
1 60097U 24117G   25323.99600901  .00002343  00000+0  91199-4 0  9990
2 60097  53.1576 186.5157 0001174  92.8721 267.2414 15.30199513 80096
STARLINK-32026          
1 60098U 24117H   25324.00551986  .00012086  00000+0  41940-3 0  9995
2 60098  53.1589 186.5751 0001859  82.8299 277.2913 15.30208510 80093
STARLINK-31732          
1 60099U 24117J   25324.10341791 -.00000857  00000+0 -16821-4 0  9994
2 60099  53.1594 185.7613 0001000  73.8456 286.2654 15.30208240 80116
STARLINK-31996          
1 60100U 24117K   25323.92119506 -.00000244  00000+0  38819-5 0  9994
2 60100  53.1609 186.7580 0001317  89.0503 271.0648 15.30198289 80085
STARLINK-31999          
1 60101U 24117L   25323.90126074 -.00000042  00000+0  10701-4 0  9996
2 60101  53.1607 187.3489 0001418  84.6464 275.4698 15.30194561 80079
STARLINK-31954          
1 60102U 24117M   25323.89492838 -.00000081  00000+0  94039-5 0  9999
2 60102  53.1592 187.3081 0001124  49.4155 310.6943 15.30194969 80078
STARLINK-32013          
1 60103U 24117N   25324.02239130  .00003296  00000+0  12337-3 0  9999
2 60103  53.1586 186.6804 0001276  87.0223 273.0924 15.30198756 80090
STARLINK-32009          
1 60104U 24117P   25323.90442303  .00002716  00000+0  10384-3 0  9990
2 60104  53.1599 187.3403 0001298  89.6753 270.4396 15.30189276 80077
STARLINK-32018          
1 60105U 24117Q   25323.88226947  .00012420  00000+0  43042-3 0  9992
2 60105  53.1585 187.2261 0001844  97.4117 262.7093 15.30224661 80078
STARLINK-32045          
1 60106U 24117R   25323.36291338  .00000495  00000+0  28862-4 0  9995
2 60106  53.1604 189.6739 0001405  84.4524 275.6637 15.30189414 79990
STARLINK-32035          
1 60107U 24117S   25324.00233929  .00000639  00000+0  33716-4 0  9994
2 60107  53.1595 186.5498 0001089 102.4349 257.6774 15.30189021 80091
STARLINK-32042          
1 60108U 24117T   25323.92752603  .00004670  00000+0  16978-3 0  9999
2 60108  53.1600 186.7967 0001158 107.3184 252.7943 15.30181967 80084
STARLINK-32040          
1 60109U 24117U   25322.92986597  .00000328  00000+0  23195-4 0  9996
2 60109  53.1617 191.2428 0001433  98.2104 261.9060 15.30197043 79938
STARLINK-32001          
1 60110U 24117V   25323.91803094  .00002546  00000+0  98071-4 0  9997
2 60110  53.1575 186.7378 0001450  92.7623 267.3544 15.30196208 80087
STARLINK-32015          
1 60111U 24117W   25323.91169983  .00000737  00000+0  37027-4 0  9994
2 60111  53.1579 186.6958 0001375  85.2033 274.9125 15.30190040 80080
STARLINK-32024          
1 60112U 24117X   25323.92437577  .00007161  00000+0  25389-3 0  9998
2 60112  53.1601 186.7769 0001634  93.3111 266.8077 15.30170413 80081
